start=new Date('2022-10-02T00:00:00.000Z').valueOf();
sats=[{"GP_ID":"213980819","MEAN_MOTION":"15.01265539","COUNTRY_CODE":"US","MEAN_MOTION_DDOT":"0.0000000000000","NORAD_CAT_ID":"53061","MEAN_ANOMALY":"214.5437","FILE":"3588844","PERIAPSIS":"562.110","EPOCH":"2022-10-01T17:58:31.579104","OBJECT_NAME":"STARLINK-4308","CENTER_NAME":"EARTH","BSTAR":"0.00012820000000","TLE_LINE2":"2 53061  97.6519  94.5124 0001275 145.5869 214.5437 15.01265539 12637","OBJECT_ID":"2022-077U","SEMIMAJOR_AXIS":"6941.130","APOAPSIS":"563.880","RA_OF_ASC_NODE":"94.5124","TLE_LINE1":"1 53061U 22077U   22274.74897661  .00001588  00000-0  12820-3 0  9996","TIME_SYSTEM":"UTC","MEAN_MOTION_DOT":"0.00001588","INCLINATION":"97.6519","RCS_SIZE":"LARGE","SITE":"AFWTR","EPHEMERIS_TYPE":"0","ECCENTRICITY":"0.00012750","LAUNCH_DATE":"2022-07-11","CLASSIFICATION_TYPE":"U","MEAN_ELEMENT_THEORY":"SGP4","OBJECT_TYPE":"PAYLOAD","PERIOD":"95.919","ARG_OF_PERICENTER":"145.5869","DECAY_DATE":null,"ELEMENT_SET_NO":"999","REV_AT_EPOCH":"1263","REF_FRAME":"TEME"},{"SEMIMAJOR_AXIS":"6941.127","OBJECT_ID":"2022-077V","TLE_LINE2":"2 53062  97.6545  94.5223 0000960  94.3074 265.8260 15.01266569 12633","BSTAR":"0.00010189000000","APOAPSIS":"563.658","RA_OF_ASC_NODE":"94.5223","MEAN_ANOMALY":"265.8260","NORAD_CAT_ID":"53062","EPOCH":"2022-10-01T18:03:51.640128","CENTER_NAME":"EARTH","OBJECT_NAME":"STARLINK-4311","FILE":"3588844","PERIAPSIS":"562.325","COUNTRY_CODE":"US","MEAN_MOTION_DDOT":"0.0000000000000","GP_ID":"213980233","MEAN_MOTION":"15.01266569","ELEMENT_SET_NO":"999","REV_AT_EPOCH":"1263","PERIOD":"95.919","ARG_OF_PERICENTER":"94.3074","DECAY_DATE":null,"REF_FRAME":"TEME","CLASSIFICATION_TYPE":"U","LAUNCH_DATE":"2022-07-11","OBJECT_TYPE":"PAYLOAD","MEAN_ELEMENT_THEORY":"SGP4","RCS_SIZE":"LARGE","ECCENTRICITY":"0.00009600","EPHEMERIS_TYPE":"0","SITE":"AFWTR","TIME_SYSTEM":"UTC","TLE_LINE1":"1 53062U 22077V   22274.75268102  .00001250  00000-0  10189-3 0  9992","INCLINATION":"97.6545","MEAN_MOTION_DOT":"0.00001250"},{"MEAN_ANOMALY":"325.2044","NORAD_CAT_ID":"53063","FILE":"3588844","PERIAPSIS":"563.939","EPOCH":"2022-10-01T18:55:27.142176","CENTER_NAME":"EARTH","OBJECT_NAME":"STARLINK-4307","TLE_LINE2":"2 53063  97.6571  94.7055 0002113  34.9318 325.2044 15.00483627 12659","BSTAR":"-0.00041786000000","OBJECT_ID":"2022-077W","SEMIMAJOR_AXIS":"6943.541","APOAPSIS":"566.873","RA_OF_ASC_NODE":"94.7055","GP_ID":"213979895","MEAN_MOTION":"15.00483627","COUNTRY_CODE":"US","MEAN_MOTION_DDOT":"0.0000000000000","LAUNCH_DATE":"2022-07-11","CLASSIFICATION_TYPE":"U","MEAN_ELEMENT_THEORY":"SGP4","OBJECT_TYPE":"PAYLOAD","ARG_OF_PERICENTER":"34.9318","PERIOD":"95.969","DECAY_DATE":null,"ELEMENT_SET_NO":"999","REV_AT_EPOCH":"1265","REF_FRAME":"TEME","TLE_LINE1":"1 53063U 22077W   22274.78850859 -.00005314  00000-0 -41786-3 0  9996","TIME_SYSTEM":"UTC","MEAN_MOTION_DOT":"-0.00005314","INCLINATION":"97.6571","RCS_SIZE":"LARGE","SITE":"AFWTR","EPHEMERIS_TYPE":"0","ECCENTRICITY":"0.00021130"},{"COUNTRY_CODE":"US","MEAN_MOTION_DDOT":"0.0000000000000","GP_ID":"213980481","MEAN_MOTION":"15.01280536","BSTAR":"0.00038398000000","TLE_LINE2":"2 53064  97.6538  94.5858 0000896 150.6191 209.5084 15.01280536 12645","SEMIMAJOR_AXIS":"6941.084","OBJECT_ID":"2022-077X","APOAPSIS":"563.570","RA_OF_ASC_NODE":"94.5858","NORAD_CAT_ID":"53064","MEAN_ANOMALY":"209.5084","FILE":"3588844","PERIAPSIS":"562.327","EPOCH":"2022-10-01T19:37:10.810272","CENTER_NAME":"EARTH","OBJECT_NAME":"STARLINK-4313","RCS_SIZE":"LARGE","EPHEMERIS_TYPE":"0","SITE":"AFWTR","ECCENTRICITY":"0.00008960","TLE_LINE1":"1 53064U 22077X   22274.81748623  .00004879  00000-0  38398-3 0  9994","TIME_SYSTEM":"UTC","INCLINATION":"97.6538","MEAN_MOTION_DOT":"0.00004879","PERIOD":"95.918","ARG_OF_PERICENTER":"150.6191","DECAY_DATE":null,"ELEMENT_SET_NO":"999","REV_AT_EPOCH":"1264","REF_FRAME":"TEME","LAUNCH_DATE":"2022-07-11","CLASSIFICATION_TYPE":"U","MEAN_ELEMENT_THEORY":"SGP4","OBJECT_TYPE":"PAYLOAD"},{"MEAN_MOTION":"15.01258447","GP_ID":"213949135","MEAN_MOTION_DDOT":"0.0000000000000","COUNTRY_CODE":"US","CENTER_NAME":"EARTH","OBJECT_NAME":"STARLINK-4312","EPOCH":"2022-10-01T11:29:17.310048","PERIAPSIS":"562.148","FILE":"3588593","MEAN_ANOMALY":"183.2264","NORAD_CAT_ID":"53065","RA_OF_ASC_NODE":"94.2420","APOAPSIS":"563.885","SEMIMAJOR_AXIS":"6941.152","OBJECT_ID":"2022-077Y","TLE_LINE2":"2 53065  97.6528  94.2420 0001251 176.8968 183.2264 15.01258447 12593","BSTAR":"-0.00006913700000","MEAN_MOTION_DOT":"-0.00000947","INCLINATION":"97.6528","TIME_SYSTEM":"UTC","TLE_LINE1":"1 53065U 22077Y   22274.47867257 -.00000947  00000-0 -69137-4 0  9992","ECCENTRICITY":"0.00012510","SITE":"AFWTR","EPHEMERIS_TYPE":"0","RCS_SIZE":"LARGE","OBJECT_TYPE":"PAYLOAD","MEAN_ELEMENT_THEORY":"SGP4","CLASSIFICATION_TYPE":"U","LAUNCH_DATE":"2022-07-11","REF_FRAME":"TEME","REV_AT_EPOCH":"1259","ELEMENT_SET_NO":"999","DECAY_DATE":null,"PERIOD":"95.920","ARG_OF_PERICENTER":"176.8968"},{"SEMIMAJOR_AXIS":"6941.145","OBJECT_ID":"2022-077Z","TLE_LINE2":"2 53066  97.6525  94.5750 0000968 108.2588 251.8741 15.01260572 12641","BSTAR":"-0.00003519900000","APOAPSIS":"563.682","RA_OF_ASC_NODE":"94.5750","NORAD_CAT_ID":"53066","MEAN_ANOMALY":"251.8741","EPOCH":"2022-10-01T19:31:50.947968","OBJECT_NAME":"STARLINK-4309","CENTER_NAME":"EARTH","FILE":"3588844","PERIAPSIS":"562.338","COUNTRY_CODE":"US","MEAN_MOTION_DDOT":"0.0000000000000","GP_ID":"213980649","MEAN_MOTION":"15.01260572","ELEMENT_SET_NO":"999","REV_AT_EPOCH":"1264","PERIOD":"95.919","ARG_OF_PERICENTER":"108.2588","DECAY_DATE":null,"REF_FRAME":"TEME","CLASSIFICATION_TYPE":"U","LAUNCH_DATE":"2022-07-11","OBJECT_TYPE":"PAYLOAD","MEAN_ELEMENT_THEORY":"SGP4","RCS_SIZE":"LARGE","ECCENTRICITY":"0.00009680","SITE":"AFWTR","EPHEMERIS_TYPE":"0","TIME_SYSTEM":"UTC","TLE_LINE1":"1 53066U 22077Z   22274.81378412 -.00000511  00000-0 -35199-4 0  9999","INCLINATION":"97.6525","MEAN_MOTION_DOT":"-0.00000511"},{"MEAN_ELEMENT_THEORY":"SGP4","OBJECT_TYPE":"PAYLOAD","LAUNCH_DATE":"2022-07-11","CLASSIFICATION_TYPE":"U","REF_FRAME":"TEME","ARG_OF_PERICENTER":"213.7019","PERIOD":"95.920","DECAY_DATE":null,"ELEMENT_SET_NO":"999","REV_AT_EPOCH":"1259","INCLINATION":"97.6540","MEAN_MOTION_DOT":"-0.00000303","TLE_LINE1":"1 53067U 22077AA  22274.47496418 -.00000303  00000-0 -18994-4 0  9992","TIME_SYSTEM":"UTC","SITE":"AFWTR","EPHEMERIS_TYPE":"0","ECCENTRICITY":"0.00022960","RCS_SIZE":"LARGE","FILE":"3588593","PERIAPSIS":"561.432","EPOCH":"2022-10-01T11:23:56.905152","OBJECT_NAME":"STARLINK-4306","CENTER_NAME":"EARTH","NORAD_CAT_ID":"53067","MEAN_ANOMALY":"146.4060","APOAPSIS":"564.620","RA_OF_ASC_NODE":"94.2376","TLE_LINE2":"2 53067  97.6540  94.2376 0002296 213.7019 146.4060 15.01255429 12599","BSTAR":"-0.00001899400000","SEMIMAJOR_AXIS":"6941.161","OBJECT_ID":"2022-077AA","MEAN_MOTION":"15.01255429","GP_ID":"213949300","MEAN_MOTION_DDOT":"0.0000000000000","COUNTRY_CODE":"US"},{"FILE":"3588844","PERIAPSIS":"561.662","EPOCH":"2022-10-01T19:26:52.081728","CENTER_NAME":"EARTH","OBJECT_NAME":"STARLINK-4325","MEAN_ANOMALY":"177.5078","NORAD_CAT_ID":"53068","APOAPSIS":"564.223","RA_OF_ASC_NODE":"94.5702","BSTAR":"0.00067872000000","TLE_LINE2":"2 53068  97.6543  94.5702 0001845 182.6137 177.5078 15.01282610 12645","SEMIMAJOR_AXIS":"6941.077","OBJECT_ID":"2022-077AB","MEAN_MOTION":"15.01282610","GP_ID":"213980065","MEAN_MOTION_DDOT":"0.0000000000000","COUNTRY_CODE":"US","MEAN_ELEMENT_THEORY":"SGP4","OBJECT_TYPE":"PAYLOAD","LAUNCH_DATE":"2022-07-11","CLASSIFICATION_TYPE":"U","REF_FRAME":"TEME","ARG_OF_PERICENTER":"182.6137","PERIOD":"95.918","DECAY_DATE":null,"ELEMENT_SET_NO":"999","REV_AT_EPOCH":"1264","INCLINATION":"97.6543","MEAN_MOTION_DOT":"0.00008675","TLE_LINE1":"1 53068U 22077AB  22274.81032502  .00008675  00000-0  67872-3 0  9997","TIME_SYSTEM":"UTC","EPHEMERIS_TYPE":"0","SITE":"AFWTR","ECCENTRICITY":"0.00018450","RCS_SIZE":"LARGE"},{"COUNTRY_CODE":"US","MEAN_MOTION_DDOT":"0.0000000000000","GP_ID":"213980820","MEAN_MOTION":"15.01289601","TLE_LINE2":"2 53069  97.6532  94.4965 0001803 204.7357 155.3781 15.01289601 12639","BSTAR":"-0.00059059000000","OBJECT_ID":"2022-077AC","SEMIMAJOR_AXIS":"6941.056","RA_OF_ASC_NODE":"94.4965","APOAPSIS":"564.172","NORAD_CAT_ID":"53069","MEAN_ANOMALY":"155.3781","PERIAPSIS":"561.669","FILE":"3588844","CENTER_NAME":"EARTH","OBJECT_NAME":"STARLINK-4323","EPOCH":"2022-10-01T17:42:30.884544","RCS_SIZE":"LARGE","SITE":"AFWTR","EPHEMERIS_TYPE":"0","ECCENTRICITY":"0.00018030","TLE_LINE1":"1 53069U 22077AC  22274.73785746 -.00007642  00000-0 -59059-3 0  9997","TIME_SYSTEM":"UTC","INCLINATION":"97.6532","MEAN_MOTION_DOT":"-0.00007642","DECAY_DATE":null,"PERIOD":"95.918","ARG_OF_PERICENTER":"204.7357","REV_AT_EPOCH":"1263","ELEMENT_SET_NO":"999","REF_FRAME":"TEME","LAUNCH_DATE":"2022-07-11","CLASSIFICATION_TYPE":"U","MEAN_ELEMENT_THEORY":"SGP4","OBJECT_TYPE":"PAYLOAD"},{"REF_FRAME":"TEME","DECAY_DATE":null,"PERIOD":"95.919","ARG_OF_PERICENTER":"204.6234","REV_AT_EPOCH":"1259","ELEMENT_SET_NO":"999","MEAN_ELEMENT_THEORY":"SGP4","OBJECT_TYPE":"PAYLOAD","LAUNCH_DATE":"2022-07-11","CLASSIFICATION_TYPE":"U","SITE":"AFWTR","EPHEMERIS_TYPE":"0","ECCENTRICITY":"0.00016600","RCS_SIZE":"LARGE","MEAN_MOTION_DOT":"0.00001067","INCLINATION":"97.6542","TLE_LINE1":"1 53070U 22077AD  22274.47681131  .00001067  00000-0  87674-4 0  9991","TIME_SYSTEM":"UTC","RA_OF_ASC_NODE":"94.2414","APOAPSIS":"564.151","TLE_LINE2":"2 53070  97.6542  94.2414 0001660 204.6234 155.4912 15.01264258 12596","BSTAR":"0.00008767400000","SEMIMAJOR_AXIS":"6941.134","OBJECT_ID":"2022-077AD","PERIAPSIS":"561.846","FILE":"3588593","CENTER_NAME":"EARTH","OBJECT_NAME":"STARLINK-4342","EPOCH":"2022-10-01T11:26:36.497184","NORAD_CAT_ID":"53070","MEAN_ANOMALY":"155.4912","MEAN_MOTION_DDOT":"0.0000000000000","COUNTRY_CODE":"US","MEAN_MOTION":"15.01264258","GP_ID":"213949635"}];
